{
    "links": {
        "self": "http://www.neowsapp.com/rest/v1/neo/3601667?api_key=iIulBulltgU6a56xZRHN4H3l9WmuAYTsLGpBGhQ2"
    },
    "id": "3601667",
    "neo_reference_id": "3601667",
    "name": "(2012 FN35)",
    "designation": "2012 FN35",
    "nasa_jpl_url": "http://ssd.jpl.nasa.gov/sbdb.cgi?sstr=3601667",
    "absolute_magnitude_h": 24.9,
    "estimated_diameter": {
        "kilometers": {
            "estimated_diameter_min": 0.0278326768,
            "estimated_diameter_max": 0.0622357573
        },
        "meters": {
            "estimated_diameter_min": 27.8326768072,
            "estimated_diameter_max": 62.2357573367
        },
        "miles": {
            "estimated_diameter_min": 0.0172944182,
            "estimated_diameter_max": 0.0386714948
        },
        "feet": {
            "estimated_diameter_min": 91.3145593761,
            "estimated_diameter_max": 204.1855621004
        }
    },
    "is_potentially_hazardous_asteroid": false,
    "close_approach_data": [
        {
            "close_approach_date": "2011-08-09",
            "close_approach_date_full": "2011-Aug-09 02:18",
            "epoch_date_close_approach": 1312856280000,
            "relative_velocity": {
                "kilometers_per_second": "6.3028887732",
                "kilometers_per_hour": "22690.3995835481",
                "miles_per_hour": "14098.9318967885"
            },
            "miss_distance": {
                "astronomical": "0.3813367485",
                "lunar": "148.3399951665",
                "kilometers": "57047165.328325695",
                "miles": "35447464.814236791"
            },
            "orbiting_body": "Earth"
        },
        {
            "close_approach_date": "2012-02-27",
            "close_approach_date_full": "2012-Feb-27 21:05",
            "epoch_date_close_approach": 1330376700000,
            "relative_velocity": {
                "kilometers_per_second": "6.6338800227",
                "kilometers_per_hour": "23881.9680815778",
                "miles_per_hour": "14839.3262226893"
            },
            "miss_distance": {
                "astronomical": "0.1193289867",
                "lunar": "46.4189758263",
                "kilometers": "17851362.239578329",
                "miles": "11092322.1378617802"
            },
            "orbiting_body": "Earth"
        }
    ],
    "orbital_data": {
        "orbit_id": "7",
        "orbit_determination_date": "2017-04-06 08:50:22",
        "first_observation_date": "2012-03-23",
        "last_observation_date": "2012-03-30",
        "data_arc_in_days": 7,
        "observations_used": 19,
        "orbit_uncertainty": "9",
        "minimum_orbit_intersection": ".0039747",
        "jupiter_tisserand_invariant": "5.356",
        "epoch_osculation": "2456011.5",
        "eccentricity": ".2714347780946071",
        "semi_major_axis": "1.16769090190518",
        "inclination": "9.311577673848888",
        "ascending_node_longitude": "6.950719002367513",
        "orbital_period": "460.8825567487103",
        "perihelion_distance": ".850738981063456",
        "perihelion_argument": "71.60070234460854",
        "aphelion_distance": "1.484642822746904",
        "perihelion_time": "2455916.187161667540",
        "mean_anomaly": "74.44981654706902",
        "mean_motion": ".7811100566261721",
        "equinox": "J2000",
        "orbit_class": {
            "orbit_class_type": "APO",
            "orbit_class_description": "Near-Earth asteroid orbits which cross the Earth’s orbit similar to that of 1862 Apollo",
            "orbit_class_range": "a (semi-major axis) > 1.0 AU; q (perihelion) < 1.017 AU"
        }
    },
    "is_sentry_object": false
}